BEIDOU-2 IGSO-5         
1 37948U 11073A   26175.65702808 -.00000196  00000+0  00000+0 0  9995
2 37948  47.6633 271.4526 0114223 222.0346 107.5350  1.00272136 53204
LUCH-5A                 
1 37951U 11074B   26182.59367740 -.00000045  00000+0  00000+0 0  9996
2 37951   8.7883  73.5986 0002712  41.0026 185.7060  1.00272770 53195
BEIDOU-2 G5             
1 38091U 12008A   26182.38231145  .00000063  00000+0  00000+0 0  9995
2 38091   3.6079  69.6156 0008400 275.6384 130.6227  1.00277340 52516
BEIDOU-2 M3             
1 38250U 12018A   26180.00176506 -.00000084  00000+0  00000+0 0  9993
2 38250  55.7466 304.4764 0020349 273.2803  86.4846  1.86230055 96162
BEIDOU-2 M4             
1 38251U 12018B   26182.08192834 -.00000069  00000+0  00000+0 0  9999
2 38251  55.6449 303.6195 0011577 274.1634  85.7126  1.86229793 96202
SES-5                   
1 38652U 12036A   26182.15775559  .00000044  00000+0  00000+0 0  9995
2 38652   0.0474 317.1039 0002296 142.3984 241.4886  1.00272231 44598
BEIDOU-2 M6             
1 38775U 12050B   26178.03289958 -.00000080  00000+0  00000+0 0  9993
2 38775  56.5526  62.5688 0013469 358.4918   1.5505  1.86231134 93497
GSAT-10                 
1 38779U 12051B   26182.45841394 -.00000154  00000+0  00000+0 0  9999
2 38779   0.0524 249.9589 0008136 202.8463  74.7542  1.00270895 50248
NAVSTAR 67 (USA 239)    
1 38833U 12053A   26181.77746476  .00000024  00000+0  00000+0 0  9996
2 38833  53.5880 143.0427 0181109  65.9708 295.8698  2.00567780 99710
GSAT0103 (GALILEO-FM3)  
1 38857U 12055A   26180.79397422 -.00000025  00000+0  00000+0 0  9990
2 38857  55.8136 101.1997 0004423 307.4227  52.5245  1.70473507 85221
BEIDOU-2 G6             
1 38953U 12059A   26182.10215101 -.00000168  00000+0  00000+0 0  9999
2 38953   4.4555  73.3789 0009533 329.4837 357.0970  1.00270758 50046
LUCH-5B                 
1 38977U 12061A   26181.44065475 -.00000133  00000+0  00000+0 0  9993
2 38977  10.5117  49.7507 0003001 132.8087 238.3434  1.00272809 49746
COSMOS 2485 [GLONASS-M] 
1 39155U 13019A   26179.64150049 -.00000037  00000+0  00000+0 0  9990
2 39155  65.4258  73.2198 0022897 232.6425 127.1980  2.13103400102529
NAVSTAR 68 (USA 242)    
1 39166U 13023A   26182.14340903 -.00000008  00000+0  00000+0 0  9994
2 39166  54.4932 268.4048 0141430  51.0773 310.2414  2.00563527 96169
IRNSS-1A                
1 39199U 13034A   26181.74010998  .00000060  00000+0  00000+0 0  9992
2 39199  35.7497  63.6762 0017845 181.6086 355.0002  1.00278919 47501
NAVSTAR 69 (USA 248)    
1 39533U 14008A   26182.14514344  .00000033  00000+0  00000+0 0  9995
2 39533  53.6565 148.7506 0084222 231.4486 127.7568  2.00560743 89967
ASTRA 5B                
1 39617U 14011B   26182.58917859  .00000148  00000+0  00000+0 0  9995
2 39617   0.0796 301.5087 0002249 162.9402  50.8008  1.00274198 44815
COSMOS 2492 [GLONASS-M] 
1 39620U 14012A   26182.41590803 -.00000054  00000+0  00000+0 0  9995
2 39620  65.2891 313.4520 0010227 321.7178  38.2085  2.13103542 95542
IRNSS-1B                
1 39635U 14017A   26181.73993664  .00000148  00000+0  00000+0 0  9995
2 39635  28.9013 240.1691 0022885 193.6011 166.4720  1.00271175 44930
LUCH-5V                 
1 39727U 14023A   26182.60332941 -.00000261  00000+0  00000+0 0  9993
2 39727   5.1671  69.6028 0002607  55.2000 106.7992  1.00270445 44508
NAVSTAR 70 (USA 251)    
1 39741U 14026A   26182.42087352 -.00000082  00000+0  00000+0 0  9996
2 39741  56.4908 330.9637 0038108 326.2206  33.5310  2.00560130 88828
COSMOS 2500 [GLONASS-M] 
1 40001U 14032A   26182.58548362 -.00000053  00000+0  00000+0 0  9992
2 40001  65.2235 313.1924 0007812 187.4639 172.5247  2.13106189 93763
NAVSTAR 71 (USA 256)    
1 40105U 14045A   26179.52112597 -.00000052  00000+0  00000+0 0  9997
2 40105  55.3602  88.0134 0033785 118.2932 242.0599  2.00559298 86307
GSAT0201 (GALILEO 5)    
1 40128U 14050A   26180.27461735 -.00000039  00000+0  00000+0 0  9998
2 40128  48.8619 272.9404 1676251 179.8513 180.2703  1.85520280 78549
GSAT0202 (GALILEO 6)    
1 40129U 14050B   26181.60808378 -.00000031  00000+0  00000+0 0  9997
2 40129  48.8773 271.9714 1677698 180.6428 179.1780  1.85520713 80732
IRNSS-1C                
1 40269U 14061A   26179.82070670 -.00000156  00000+0  00000+0 0  9999
2 40269   6.5464  88.7100 0022105   4.4529 202.1283  1.00274876 42803
NAVSTAR 72 (USA 258)    
1 40294U 14068A   26181.88291062 -.00000062  00000+0  00000+0 0  9999
2 40294  56.9970  30.4273 0067311  71.0884 289.7026  2.00577197 85489
COSMOS 2501 [GLONASS-K] 
1 40315U 14075A   26181.43994692  .00000079  00000+0  00000+0 0  9998
2 40315  63.6170 189.9132 0022635 212.5837 147.3119  2.13101453 90136
NAVSTAR 73 (USA 260)    
1 40534U 15013A   26182.52201142  .00000067  00000+0  00000+0 0  9993
2 40534  53.1671 203.5847 0109911  40.2564 320.6065  2.00550585 82116
GSAT0203 (GALILEO 7)    
1 40544U 15017A   26182.29078740 -.00000082  00000+0  00000+0 0  9996
2 40544  56.7819 341.2117 0002294 263.0128  96.9526  1.70476409 69441
GSAT0204 (GALILEO 8)    
1 40545U 15017B   26181.37344972 -.00000085  00000+0  00000+0 0  9991
2 40545  56.7889 341.2552 0002318 237.2395 122.7292  1.70475898 32470
